IRIDIUM 112             
1 41925U 17003J   26009.13109048  .00000277  00000+0  91734-4 0  9998
2 41925  86.4000 154.7769 0001877  98.3363 261.8045 14.34217996470479
IRIDIUM 111             
1 41926U 17003K   26009.11840573  .00000248  00000+0  81630-4 0  9994
2 41926  86.4004 154.8492 0002068  96.3632 263.7800 14.34217570470454
IRIDIUM 113             
1 42803U 17039A   26009.09837070  .00000010  00000+0 -35466-5 0  9998
2 42803  86.3957  28.6545 0002118  96.0382 264.1055 14.34217583448385
IRIDIUM 123             
1 42804U 17039B   26009.13985007  .00000018  00000+0 -66240-6 0  9991
2 42804  86.3941  60.1210 0002438  97.2924 262.8549 14.34217565447156
IRIDIUM 120             
1 42805U 17039C   26009.09202832  .00000019  00000+0 -23623-6 0  9994
2 42805  86.3940  28.4602 0002189  84.6731 275.4715 14.34217467448378
IRIDIUM 115             
1 42806U 17039D   26009.07362873  .00000347  00000+0  97086-4 0  9990
2 42806  86.4481  28.5746 0002747  89.7170 270.4345 14.43282430451317
IRIDIUM 118             
1 42807U 17039E   26009.17156200  .00000014  00000+0 -20100-5 0  9993
2 42807  86.3938  60.1065 0002039  99.3793 260.7634 14.34217562447156
IRIDIUM 117             
1 42808U 17039F   26009.19059030  .00000263  00000+0  86818-4 0  9991
2 42808  86.3942  60.0578 0002348  97.4798 262.6665 14.34217592447188
